{
  "type": "FeatureCollection",
  "name": "MyZubster Worldwide Observations",
  "features": [
    {
      "type": "Feature",
      "geometry": {
        "type": "Point",
        "coordinates": [12.5678873, 44.0637353]
      },
      "properties": {
        "id": "rimini-via-clodia-20260818-001",
        "name": "Via Clodia",
        "country": "Italy",
        "region": "Emilia-Romagna",
        "city": "Rimini",
        "category": "street",
        "media_type": "panorama",
        "capture_date": "2026-08-18",
        "github_record": "https://github.com/MyZubster-Ecosystem/myzubster/blob/main/world/italy/emilia-romagna/rimini/streets/via-clodia/README.md",
        "google_maps": "https://www.google.com/maps?q=44.0637353,12.5678873"
      }
    },
    {
      "type": "Feature",
      "geometry": {
        "type": "Point",
        "coordinates": [12.5314941, 44.0643945]
      },
      "properties": {
        "id": "rimini-futura-ambiente-sede-20260818-001",
        "name": "Futura Ambiente — Sede di Rimini",
        "address": "Via Portogallo 11, Rimini",
        "country": "Italy",
        "region": "Emilia-Romagna",
        "city": "Rimini",
        "category": "urban-environmental-service",
        "media_type": "photo",
        "capture_date": "2026-08-18",
        "github_record": "https://github.com/MyZubster-Ecosystem/myzubster/blob/main/world/italy/emilia-romagna/rimini/services/futura-ambiente/sede-rimini/README.md",
        "google_maps": "https://www.google.com/maps?q=44.0643945,12.5314941"
      }
    }
  ]
}
